ONEWEB-0045             
1 45151U 20008W   24250.79370295  .00000536  00000+0  14770-2 0  9995
2 45151  87.8985 150.1610 0001696  76.4133 283.7183 13.11415423226202
ONEWEB-0047             
1 45152U 20008X   24251.17936874 -.00000548  00000+0 -16060-2 0  9999
2 45152  87.8990 165.2148 0001879  73.5367 286.5967 13.10372863224121
ONEWEB-0048             
1 45153U 20008Y   24251.17438941 -.00000495  00000+0 -14549-2 0  9993
2 45153  87.8990 165.2333 0001889  71.4425 288.6907 13.10371614223715
ONEWEB-0049             
1 45154U 20008Z   24250.79426868 -.00000460  00000+0 -13531-2 0  9998
2 45154  87.8997 165.2911 0002221  63.9389 296.1967 13.10373439223897
ONEWEB-0051             
1 45155U 20008AA  24251.47866170  .00000612  00000+0  16904-2 0  9993
2 45155  87.8986 150.0673 0001927  79.4310 280.7035 13.11419579226975
ONEWEB-0052             
1 45156U 20008AB  24251.17273360 -.00000445  00000+0 -13119-2 0  9995
2 45156  87.8988 165.1815 0002059  61.4583 298.6751 13.10372018223833
ONEWEB-0053             
1 45157U 20008AC  24251.45991696  .00000411  00000+0  11399-2 0  9995
2 45157  87.8987 165.1789 0001504  71.2467 288.8823 13.10371718223845
ONEWEB-0054             
1 45158U 20008AD  24250.80755175 -.00000217  00000+0 -65881-3 0  9996
2 45158  87.8993 165.2882 0001961  74.2884 285.8459 13.10375105223870
